ORBCOMM FM20            
1 25416U 98046D   25269.46075216  .00002069  00000+0  73292-3 0  9992
2 25416  44.9944  61.5993 0001349 134.5711 225.5247 14.37402714418830
ORBCOMM FM16            
1 25417U 98046E   25269.47357914  .00003052  00000+0  10214-2 0  9999
2 25417  44.9937  51.7563 0004580 107.2692 252.8658 14.39177060418847
ORBCOMM FM15            
1 25418U 98046F   25269.47496589  .00002623  00000+0  89069-3 0  9990
2 25418  44.9966  57.1994 0004313 107.4388 252.6933 14.38811658418836
ORBCOMM FM14            
1 25419U 98046G   25269.46678378  .00002810  00000+0  94373-3 0  9990
2 25419  44.9955  55.1787 0003066 110.2064 249.9114 14.39195814418807
ORBCOMM FM13            
1 25420U 98046H   25269.39231650  .00002479  00000+0  86024-3 0  9997
2 25420  44.9967  64.5091 0004865  79.4288 280.7108 14.37897484417801
ORBCOMM FM21            
1 25475U 98053A   25268.72742372  .00001734  00000+0  62028-3 0  9990
2 25475  45.0078 153.3082 0002580   7.9957 352.0931 14.37537079411716
ORBCOMM FM22            
1 25476U 98053B   25269.10676457  .00002369  00000+0  81183-3 0  9992
2 25476  45.0058 145.5333 0004205  13.3244 346.7715 14.38635144411806
ORBCOMM FM23            
1 25477U 98053C   25269.06214727  .00002021  00000+0  71209-3 0  9999
2 25477  45.0076 153.6969 0003587   6.4927 353.5967 14.37745733411917
